ELYSIUM STAR 2 & LFF    
1 43760U 18099C   24224.07804495  .00098324  00000+0  31647-2 0  9996
2 43760  97.5114 292.1875 0005416  95.3800 264.8059 15.31812717311627
